0 CZ-4 DEB
1 20895U 90081BF  13282.50674319  .00001737  00000-0  61031-3 0  2505
2 20895 098.5418 274.9363 0033700 091.8324 031.0271 14.35867436196406
0 CZ-4 DEB
1 20895U 90081BF  13286.94843083  .00001895  00000-0  66436-3 0  2524
2 20895 098.5417 279.3371 0033744 079.1857 310.1660 14.35879053197043
0 CZ-4 DEB
1 20895U 90081BF  13289.94937100  .00002472  00000-0  86209-3 0  2534
2 20895 098.5412 282.3099 0033715 070.4411 342.4200 14.35891708197473
0 CZ-4 DEB
1 20895U 90081BF  13291.97129042  .00002280  00000-0  79593-3 0  2544
2 20895 098.5417 284.3133 0033788 064.7395 353.8763 14.35899812197762
0 CZ-4 DEB
1 20895U 90081BF  13294.49258222  .00002618  00000-0  91172-3 0  2550
2 20895 098.5426 286.8111 0033734 057.5745 066.7606 14.35909848198123
